[{"OBJECT_NAME":"NEXTSAT-1","OBJECT_ID":"2018-099BF","EPOCH":"2026-03-09T16:24:07.497504","MEAN_MOTION":15.08057555,"ECCENTRICITY":0.001132,"INCLINATION":97.4203,"RA_OF_ASC_NODE":114.8574,"ARG_OF_PERICENTER":323.961,"MEAN_ANOMALY":36.0854,"EPHEMERIS_TYPE":0,"CLASSIFICATION_TYPE":"U","NORAD_CAT_ID":43811,"ELEMENT_SET_NO":999,"REV_AT_EPOCH":39688,"BSTAR":0.00029857014,"MEAN_MOTION_DOT":4.546e-5,"MEAN_MOTION_DDOT":0},{"OBJECT_NAME":"STARLINK-34730","OBJECT_ID":"2025-158G","EPOCH":"2026-03-09T13:46:44.323104","MEAN_MOTION":15.05650418,"ECCENTRICITY":0.0001899,"INCLINATION":97.6029,"RA_OF_ASC_NODE":294.0445,"ARG_OF_PERICENTER":87.0605,"MEAN_ANOMALY":273.0839,"EPHEMERIS_TYPE":0,"CLASSIFICATION_TYPE":"U","NORAD_CAT_ID":64938,"ELEMENT_SET_NO":999,"REV_AT_EPOCH":3534,"BSTAR":0.00027579,"MEAN_MOTION_DOT":3.921e-5,"MEAN_MOTION_DDOT":0}]
