NEXTSAT-1               
1 43811U 18099BF  26068.68342010  .00004546  00000+0  29857-3 0  9992
2 43811  97.4203 114.8574 0011320 323.9610  36.0854 15.08057555396886
STARLINK-34730          
1 64938U 25158G   26068.57412411  .00003921  00000+0  27579-3 0  9995
2 64938  97.6029 294.0445 0001899  87.0605 273.0839 15.05650418 35348
